CCSDS_OMM_VERS = 2.0
CREATION_DATE  = 
ORIGINATOR     = 

OBJECT_NAME    = SL-14 R/B
OBJECT_ID      = 1986-046B
CENTER_NAME    = EARTH
REF_FRAME      = TEME
TIME_SYSTEM    = UTC
MEAN_ELEMENT_THEORY = SGP/SGP4

EPOCH          = 2026-02-13T05:20:29.617728
MEAN_MOTION    = 14.85566537
ECCENTRICITY   = .0021894
INCLINATION    = 82.4806
RA_OF_ASC_NODE = 103.3048
ARG_OF_PERICENTER = 311.4433
MEAN_ANOMALY   = 48.4902

EPHEMERIS_TYPE = 0
CLASSIFICATION_TYPE = U
NORAD_CAT_ID   = 16792
ELEMENT_SET_NO = 999
REV_AT_EPOCH   = 12277
BSTAR          = .53721E-4
MEAN_MOTION_DOT = .49E-5
MEAN_MOTION_DDOT = 0

CCSDS_OMM_VERS = 2.0
CREATION_DATE  = 
ORIGINATOR     = 

OBJECT_NAME    = SL-14 R/B
OBJECT_ID      = 1986-055B
CENTER_NAME    = EARTH
REF_FRAME      = TEME
TIME_SYSTEM    = UTC
MEAN_ELEMENT_THEORY = SGP/SGP4

EPOCH          = 2026-02-13T08:29:03.595776
MEAN_MOTION    = 14.85617640
ECCENTRICITY   = .0020124
INCLINATION    = 82.5233
RA_OF_ASC_NODE = 149.5413
ARG_OF_PERICENTER = 55.5332
MEAN_ANOMALY   = 4.8165

EPHEMERIS_TYPE = 0
CLASSIFICATION_TYPE = U
NORAD_CAT_ID   = 16882
ELEMENT_SET_NO = 999
REV_AT_EPOCH   = 11575
BSTAR          = .62555E-4
MEAN_MOTION_DOT = .568E-5
MEAN_MOTION_DDOT = 0

CCSDS_OMM_VERS = 2.0
CREATION_DATE  = 
ORIGINATOR     = 

OBJECT_NAME    = AJISAI (EGS)
OBJECT_ID      = 1986-061A
CENTER_NAME    = EARTH
REF_FRAME      = TEME
TIME_SYSTEM    = UTC
MEAN_ELEMENT_THEORY = SGP/SGP4

EPOCH          = 2026-02-13T10:55:50.789280
MEAN_MOTION    = 12.44515346
ECCENTRICITY   = .0011237
INCLINATION    = 50.0080
RA_OF_ASC_NODE = 167.8677
ARG_OF_PERICENTER = 224.5379
MEAN_ANOMALY   = 171.8609

EPHEMERIS_TYPE = 0
CLASSIFICATION_TYPE = U
NORAD_CAT_ID   = 16908
ELEMENT_SET_NO = 999
REV_AT_EPOCH   = 46498
BSTAR          = -.11213E-3
MEAN_MOTION_DOT = -.113E-5
MEAN_MOTION_DDOT = 0

CCSDS_OMM_VERS = 2.0
CREATION_DATE  = 
ORIGINATOR     = 

OBJECT_NAME    = COSMOS 1812
OBJECT_ID      = 1987-003A
CENTER_NAME    = EARTH
REF_FRAME      = TEME
TIME_SYSTEM    = UTC
MEAN_ELEMENT_THEORY = SGP/SGP4

EPOCH          = 2026-02-13T12:04:27.147936
MEAN_MOTION    = 15.98206981
ECCENTRICITY   = .0002104
INCLINATION    = 82.4761
RA_OF_ASC_NODE = 223.1330
ARG_OF_PERICENTER = 307.1834
MEAN_ANOMALY   = 52.9250

EPHEMERIS_TYPE = 0
CLASSIFICATION_TYPE = U
NORAD_CAT_ID   = 17295
ELEMENT_SET_NO = 999
REV_AT_EPOCH   = 14059
BSTAR          = .73952E-3
MEAN_MOTION_DOT = .33906E-2
MEAN_MOTION_DDOT = .45558E-4

CCSDS_OMM_VERS = 2.0
CREATION_DATE  = 
ORIGINATOR     = 

OBJECT_NAME    = SL-14 R/B
OBJECT_ID      = 1987-024B
CENTER_NAME    = EARTH
REF_FRAME      = TEME
TIME_SYSTEM    = UTC
MEAN_ELEMENT_THEORY = SGP/SGP4

EPOCH          = 2026-02-13T06:21:26.946144
MEAN_MOTION    = 14.86108809
ECCENTRICITY   = .0017757
INCLINATION    = 82.5283
RA_OF_ASC_NODE = 115.7212
ARG_OF_PERICENTER = 346.5216
MEAN_ANOMALY   = 13.5524

EPHEMERIS_TYPE = 0
CLASSIFICATION_TYPE = U
NORAD_CAT_ID   = 17567
ELEMENT_SET_NO = 999
REV_AT_EPOCH   = 8450
BSTAR          = .54458E-4
MEAN_MOTION_DOT = .502E-5
MEAN_MOTION_DDOT = 0

CCSDS_OMM_VERS = 2.0
CREATION_DATE  = 
ORIGINATOR     = 

OBJECT_NAME    = COSMOS 1833
OBJECT_ID      = 1987-027A
CENTER_NAME    = EARTH
REF_FRAME      = TEME
TIME_SYSTEM    = UTC
MEAN_ELEMENT_THEORY = SGP/SGP4

EPOCH          = 2026-02-13T08:48:37.485792
MEAN_MOTION    = 14.13057189
ECCENTRICITY   = .0024906
INCLINATION    = 70.9221
RA_OF_ASC_NODE = 17.1346
ARG_OF_PERICENTER = 247.2836
MEAN_ANOMALY   = 112.5652

EPHEMERIS_TYPE = 0
CLASSIFICATION_TYPE = U
NORAD_CAT_ID   = 17589
ELEMENT_SET_NO = 999
REV_AT_EPOCH   = 688
BSTAR          = .27892E-4
MEAN_MOTION_DOT = .4E-7
MEAN_MOTION_DDOT = 0

CCSDS_OMM_VERS = 2.0
CREATION_DATE  = 
ORIGINATOR     = 

OBJECT_NAME    = SL-16 R/B
OBJECT_ID      = 1987-027B
CENTER_NAME    = EARTH
REF_FRAME      = TEME
TIME_SYSTEM    = UTC
MEAN_ELEMENT_THEORY = SGP/SGP4

EPOCH          = 2026-02-13T04:47:13.326720
MEAN_MOTION    = 14.17162827
ECCENTRICITY   = .0004812
INCLINATION    = 71.0045
RA_OF_ASC_NODE = 328.1009
ARG_OF_PERICENTER = 185.9963
MEAN_ANOMALY   = 174.1104

EPHEMERIS_TYPE = 0
CLASSIFICATION_TYPE = U
NORAD_CAT_ID   = 17590
ELEMENT_SET_NO = 999
REV_AT_EPOCH   = 1187
BSTAR          = -.19177E-4
MEAN_MOTION_DOT = -.87E-6
MEAN_MOTION_DDOT = 0

CCSDS_OMM_VERS = 2.0
CREATION_DATE  = 
ORIGINATOR     = 

OBJECT_NAME    = SL-14 R/B
OBJECT_ID      = 1987-038B
CENTER_NAME    = EARTH
REF_FRAME      = TEME
TIME_SYSTEM    = UTC
MEAN_ELEMENT_THEORY = SGP/SGP4

EPOCH          = 2026-02-13T05:56:04.692192
MEAN_MOTION    = 14.85345727
ECCENTRICITY   = .0017763
INCLINATION    = 82.5039
RA_OF_ASC_NODE = 319.8287
ARG_OF_PERICENTER = 243.7031
MEAN_ANOMALY   = 116.2360

EPHEMERIS_TYPE = 0
CLASSIFICATION_TYPE = U
NORAD_CAT_ID   = 17912
ELEMENT_SET_NO = 999
REV_AT_EPOCH   = 7560
BSTAR          = .61345E-4
MEAN_MOTION_DOT = .553E-5
MEAN_MOTION_DDOT = 0

CCSDS_OMM_VERS = 2.0
CREATION_DATE  = 
ORIGINATOR     = 

OBJECT_NAME    = COSMOS 1844
OBJECT_ID      = 1987-041A
CENTER_NAME    = EARTH
REF_FRAME      = TEME
TIME_SYSTEM    = UTC
MEAN_ELEMENT_THEORY = SGP/SGP4

EPOCH          = 2026-02-13T11:58:12.605664
MEAN_MOTION    = 14.14545274
ECCENTRICITY   = .0028954
INCLINATION    = 70.8979
RA_OF_ASC_NODE = 85.2032
ARG_OF_PERICENTER = 56.6198
MEAN_ANOMALY   = 303.7688

EPHEMERIS_TYPE = 0
CLASSIFICATION_TYPE = U
NORAD_CAT_ID   = 17973
ELEMENT_SET_NO = 999
REV_AT_EPOCH   = 16
BSTAR          = .25853E-3
MEAN_MOTION_DOT = .45E-5
MEAN_MOTION_DDOT = 0

CCSDS_OMM_VERS = 2.0
CREATION_DATE  = 
ORIGINATOR     = 

OBJECT_NAME    = SL-14 R/B
OBJECT_ID      = 1987-055B
CENTER_NAME    = EARTH
REF_FRAME      = TEME
TIME_SYSTEM    = UTC
MEAN_ELEMENT_THEORY = SGP/SGP4

EPOCH          = 2026-02-13T08:43:00.302016
MEAN_MOTION    = 14.85598797
ECCENTRICITY   = .0022328
INCLINATION    = 82.5003
RA_OF_ASC_NODE = 11.9538
ARG_OF_PERICENTER = 93.6139
MEAN_ANOMALY   = 266.7631

EPHEMERIS_TYPE = 0
CLASSIFICATION_TYPE = U
NORAD_CAT_ID   = 18153
ELEMENT_SET_NO = 999
REV_AT_EPOCH   = 6632
BSTAR          = .69652E-4
MEAN_MOTION_DOT = .63E-5
MEAN_MOTION_DDOT = 0

CCSDS_OMM_VERS = 2.0
CREATION_DATE  = 
ORIGINATOR     = 

OBJECT_NAME    = COSMOS 1867
OBJECT_ID      = 1987-060A
CENTER_NAME    = EARTH
REF_FRAME      = TEME
TIME_SYSTEM    = UTC
MEAN_ELEMENT_THEORY = SGP/SGP4

EPOCH          = 2026-02-13T08:08:09.537792
MEAN_MOTION    = 14.31499117
ECCENTRICITY   = .0014161
INCLINATION    = 65.0118
RA_OF_ASC_NODE = 14.8958
ARG_OF_PERICENTER = 276.9731
MEAN_ANOMALY   = 82.9743

EPHEMERIS_TYPE = 0
CLASSIFICATION_TYPE = U
NORAD_CAT_ID   = 18187
ELEMENT_SET_NO = 999
REV_AT_EPOCH   = 1645
BSTAR          = .38012E-4
MEAN_MOTION_DOT = .1E-7
MEAN_MOTION_DDOT = 0

CCSDS_OMM_VERS = 2.0
CREATION_DATE  = 
ORIGINATOR     = 

OBJECT_NAME    = SL-14 R/B
OBJECT_ID      = 1988-001B
CENTER_NAME    = EARTH
REF_FRAME      = TEME
TIME_SYSTEM    = UTC
MEAN_ELEMENT_THEORY = SGP/SGP4

EPOCH          = 2026-02-13T11:47:48.060672
MEAN_MOTION    = 14.85498014
ECCENTRICITY   = .0017098
INCLINATION    = 82.5111
RA_OF_ASC_NODE = 218.1191
ARG_OF_PERICENTER = 322.3684
MEAN_ANOMALY   = 37.6335

EPHEMERIS_TYPE = 0
CLASSIFICATION_TYPE = U
NORAD_CAT_ID   = 18749
ELEMENT_SET_NO = 999
REV_AT_EPOCH   = 3843
BSTAR          = .64585E-4
MEAN_MOTION_DOT = .582E-5
MEAN_MOTION_DDOT = 0

