SL-14 R/B               
1 16792U 86046B   26044.22256502  .00000490  00000+0  53721-4 0  9993
2 16792  82.4806 103.3048 0021894 311.4433  48.4902 14.85566537122773
SL-14 R/B               
1 16882U 86055B   26044.35351384  .00000568  00000+0  62555-4 0  9992
2 16882  82.5233 149.5413 0020124  55.5332   4.8165 14.85617640115754
AJISAI (EGS)            
1 16908U 86061A   26044.45544895 -.00000113  00000+0 -11213-3 0  9992
2 16908  50.0080 167.8677 0011237 224.5379 171.8609 12.44515346464985
COSMOS 1812             
1 17295U 87003A   26044.50309199  .00339060  45558-4  73952-3 0  9995
2 17295  82.4761 223.1330 0002104 307.1834  52.9250 15.98206981140592
SL-14 R/B               
1 17567U 87024B   26044.26489521  .00000502  00000+0  54458-4 0  9996
2 17567  82.5283 115.7212 0017757 346.5216  13.5524 14.86108809 84501
COSMOS 1833             
1 17589U 87027A   26044.36710053  .00000004  00000+0  27892-4 0  9990
2 17589  70.9221  17.1346 0024906 247.2836 112.5652 14.13057189  6881
SL-16 R/B               
1 17590U 87027B   26044.19945980 -.00000087  00000+0 -19177-4 0  9992
2 17590  71.0045 328.1009 0004812 185.9963 174.1104 14.17162827 11874
SL-14 R/B               
1 17912U 87038B   26044.24727653  .00000553  00000+0  61345-4 0  9993
2 17912  82.5039 319.8287 0017763 243.7031 116.2360 14.85345727 75604
COSMOS 1844             
1 17973U 87041A   26044.49875701  .00000450  00000+0  25853-3 0  9998
2 17973  70.8979  85.2032 0028954  56.6198 303.7688 14.14545274   161
SL-14 R/B               
1 18153U 87055B   26044.36319794  .00000630  00000+0  69652-4 0  9991
2 18153  82.5003  11.9538 0022328  93.6139 266.7631 14.85598797 66324
COSMOS 1867             
1 18187U 87060A   26044.33899928  .00000001  00000+0  38012-4 0  9991
2 18187  65.0118  14.8958 0014161 276.9731  82.9743 14.31499117 16450
SL-14 R/B               
1 18749U 88001B   26044.49152848  .00000582  00000+0  64585-4 0  9999
2 18749  82.5111 218.1191 0017098 322.3684  37.6335 14.85498014 38434
